NORAD_CAT_ID,OBJECT_NAME,OBJECT_TYPE,EPOCH,MEAN_MOTION,ECCENTRICITY,INCLINATION,RA_OF_ASC_NODE,ARG_OF_PERICENTER,MEAN_ANOMALY,BSTAR,MEAN_MOTION_DOT,MEAN_MOTION_DDOT,TLE_LINE0,TLE_LINE1,TLE_LINE2,SEMIMAJOR_AXIS,PERIOD,APOGEE,PERIGEE,DECAYED
51127.0,STARLINK-3370,PAYLOAD,2022-12-27 19:24:02,15.08845232,0.0003266,53.2154,141.9512,46.8186,313.3078,0.00014501,2.02e-05,0.0,0 STARLINK-3370,1 51127U 22005Z   22361.80836593  .00002020  00000-0  14501-3 0  9999,2 51127  53.2154 141.9512 0003266  46.8186 313.3078 15.08845232 53541,6917.864000000001,95.437,541.989,537.47,0.0
51127.0,STARLINK-3370,PAYLOAD,2022-12-28 09:42:30,15.08844312,0.0003273,53.2156,139.275,47.5124,312.6144,0.00027325,4.064e-05,0.0,0 STARLINK-3370,1 51127U 22005Z   22362.40452293  .00004064  00000-0  27325-3 0  9995,2 51127  53.2156 139.2750 0003273  47.5124 312.6144 15.08844312 52515,6917.8669999999975,95.437,541.996,537.4680000000002,0.0
51127.0,STARLINK-3370,PAYLOAD,2022-12-29 09:33:19,15.08828024,0.0003379,53.2166,134.8153,49.5383,310.5903,-5.0029e-05,-1.085e-05,0.0,0 STARLINK-3370,1 51127U 22005Z   22363.39814624 -.00001085  00000-0 -50029-4 0  9994,2 51127  53.2166 134.8153 0003379  49.5383 310.5903 15.08828024 53782,6917.917,95.438,542.12,537.444,0.0
51127.0,STARLINK-3370,PAYLOAD,2022-12-29 15:54:52,15.08833521,0.0003314,53.2158,133.6249,47.1892,312.9378,-2.2884e-06,-3.25e-06,0.0,0 STARLINK-3370,1 51127U 22005Z   22363.66310279 -.00000325  00000-0 -22884-5 0  9996,2 51127  53.2158 133.6249 0003314  47.1892 312.9378 15.08833521 53829,6917.9,95.438,542.058,537.4730000000002,0.0
51127.0,STARLINK-3370,PAYLOAD,2022-12-30 09:24:05,15.08837722,0.0003259999999999,53.216,130.3534,47.0504,313.0762,0.00020752,3.016e-05,0.0,0 STARLINK-3370,1 51127U 22005Z   22364.39173483  .00003016  00000-0  20752-3 0  9999,2 51127  53.2160 130.3534 0003260  47.0504 313.0762 15.08837722 52816,6917.887,95.438,542.008,537.497,0.0
51127.0,STARLINK-3370,PAYLOAD,2022-12-30 17:21:01,15.08855052,0.0003162,53.2142,128.8669,43.3229,316.8011,0.00047898,7.346e-05,0.0,0 STARLINK-3370,1 51127U 22005Z   22364.72293007  .00007346  00000-0  47898-3 0  9991,2 51127  53.2142 128.8669 0003162  43.3229 316.8011 15.08855052 53984,6917.834,95.437,541.887,537.512,0.0
51127.0,STARLINK-3370,PAYLOAD,2022-12-31 09:14:52,15.08853549,0.0003183,53.2137,125.8925,37.2045,322.9167,0.00027054,4.021e-05,0.0,0 STARLINK-3370,1 51127U 22005Z   22365.38532606  .00004021  00000-0  27054-3 0  9994,2 51127  53.2137 125.8925 0003183  37.2045 322.9167 15.08853549 54082,6917.839,95.437,541.906,537.502,0.0
51127.0,STARLINK-3370,PAYLOAD,2022-12-31 17:11:47,15.08852753,0.0003158,53.2145,124.406,42.9749,317.1489,0.00022449,3.287e-05,0.0,0 STARLINK-3370,1 51127U 22005Z   22365.71652298  .00003287  00000-0  22449-3 0  9997,2 51127  53.2145 124.4060 0003158  42.9749 317.1489 15.08852753 53013,6917.840999999999,95.437,541.891,537.5219999999998,0.0
51127.0,STARLINK-3370,PAYLOAD,2023-01-01 01:08:43,15.08843548,0.0003148,53.2147,122.9212,42.8073,317.3164,4.7123e-06,-2.14e-06,0.0,0 STARLINK-3370,1 51127U 22005Z   23001.04772726 -.00000214  00000-0  47123-5 0  9996,2 51127  53.2147 122.9212 0003148  42.8073 317.3164 15.08843548 54188,6917.87,95.437,541.9119999999998,537.557,0.0
51127.0,STARLINK-3370,PAYLOAD,2023-01-01 09:05:39,15.08838112,0.0003343,53.2148,121.4327,44.5145,315.6115,-0.00023779,-4.071e-05,0.0,0 STARLINK-3370,1 51127U 22005Z   23001.37892995 -.00004071  00000-0 -23779-3 0  9998,2 51127  53.2148 121.4327 0003343  44.5145 315.6115 15.08838112 53116,6917.886,95.438,542.064,537.439,0.0
51127.0,STARLINK-3370,PAYLOAD,2023-01-01 17:02:36,15.08834952,0.0003224,53.2164,119.9468,43.7382,316.3865,-0.00016492,-2.912e-05,0.0,0 STARLINK-3370,1 51127U 22005Z   23001.71014175 -.00002912  00000-0 -16492-3 0  9998,2 51127  53.2164 119.9468 0003224  43.7382 316.3865 15.08834952 53167,6917.896,95.438,541.991,537.53,0.0
51127.0,STARLINK-3370,PAYLOAD,2023-01-02 00:59:32,15.0882937,0.0003061999999999,53.2157,118.4594,41.1545,318.9678,-0.00018405,-3.216e-05,0.0,0 STARLINK-3370,1 51127U 22005Z   23002.04134654 -.00003216  00000-0 -18405-3 0  9994,2 51127  53.2157 118.4594 0003062  41.1545 318.9678 15.08829370 54334,6917.913000000001,95.438,541.896,537.66,0.0
51127.0,STARLINK-3370,PAYLOAD,2023-01-02 10:31:50,15.08838305,0.0003043,53.2158,116.6755,39.9696,320.152,-5.099100000000002e-05,-1.1e-05,0.0,0 STARLINK-3370,1 51127U 22005Z   23002.43877861 -.00001100  00000-0 -50991-4 0  9998,2 51127  53.2158 116.6755 0003043  39.9696 320.1520 15.08838305 54390,6917.886,95.438,541.856,537.645,0.0
51127.0,STARLINK-3370,PAYLOAD,2023-01-02 13:42:36,15.08840711,0.0002981,53.2159,116.0805,40.1611,319.9601,-2.7313e-05,-7.23e-06,0.0,0 STARLINK-3370,1 51127U 22005Z   23002.57125652 -.00000723  00000-0 -27313-4 0  9999,2 51127  53.2159 116.0805 0002981  40.1611 319.9601 15.08840711 53290,6917.878000000002,95.438,541.805,537.681,0.0
51127.0,STARLINK-3370,PAYLOAD,2023-01-02 16:53:22,15.08842329,0.0003022,53.2158,115.4857,39.456,320.6652,-1.7267e-06,-3.16e-06,0.0,0 STARLINK-3370,1 51127U 22005Z   23002.70373493 -.00000316  00000-0 -17267-5 0  9998,2 51127  53.2158 115.4857 0003022  39.4560 320.6652 15.08842329 53315,6917.873000000001,95.437,541.8290000000002,537.648,0.0
51127.0,STARLINK-3370,PAYLOAD,2023-01-03 00:50:18,15.08843127,0.0003112,53.2161,113.9991,41.0977,319.0249,0.00012261,1.663e-05,0.0,0 STARLINK-3370,1 51127U 22005Z   23003.03493176  .00001663  00000-0  12261-3 0  9997,2 51127  53.2161 113.9991 0003112  41.0977 319.0249 15.08843127 54482,6917.871,95.437,541.889,537.5830000000002,0.0
51127.0,STARLINK-3370,PAYLOAD,2023-01-03 13:33:23,15.08837709,0.0002946,53.216,111.6203,39.5273,320.5934,0.00022717,3.329e-05,0.0,0 STARLINK-3370,1 51127U 22005Z   23003.56485586  .00003329  00000-0  22717-3 0  9999,2 51127  53.2160 111.6203 0002946  39.5273 320.5934 15.08837709 54563,6917.887,95.438,541.79,537.714,0.0
51127.0,STARLINK-3370,PAYLOAD,2023-01-04 13:24:10,15.08844593,0.0002931999999999,53.2158,107.1601,34.3923,325.7258,0.00017962,2.572e-05,0.0,0 STARLINK-3370,1 51127U 22005Z   23004.55845728  .00002572  00000-0  17962-3 0  9992,2 51127  53.2158 107.1601 0002932  34.3923 325.7258 15.08844593 53599,6917.866,95.437,541.76,537.703,0.0
51127.0,STARLINK-3370,PAYLOAD,2023-01-05 13:14:56,15.08865047,0.0002992,53.2152,102.6992,35.2539,324.8651,0.00035694,5.401e-05,0.0,0 STARLINK-3370,1 51127U 22005Z   23005.55204081  .00005401  00000-0  35694-3 0  9990,2 51127  53.2152 102.6992 0002992  35.2539 324.8651 15.08865047 54860,6917.804,95.436,541.739,537.599,0.0
51127.0,STARLINK-3370,PAYLOAD,2023-01-05 16:25:42,15.08861324,0.0003047,53.2157,102.105,32.9051,327.213,0.00024088,3.549e-05,0.0,0 STARLINK-3370,1 51127U 22005Z   23005.68452165  .00003549  00000-0  24088-3 0  9998,2 51127  53.2157 102.1050 0003047  32.9051 327.2130 15.08861324 53761,6917.815,95.436,541.788,537.572,0.0
51127.0,STARLINK-3370,PAYLOAD,2023-01-06 06:44:11,15.08852572,0.0003826,53.216,99.4276,40.2689,319.8586,2.0249e-05,3.3e-07,0.0,0 STARLINK-3370,1 51127U 22005Z   23006.28068464  .00000033  00000-0  20249-4 0  9991,2 51127  53.2160  99.4276 0003826  40.2689 319.8586 15.08852572 54978,6917.842,95.437,542.354,537.06,0.0
51127.0,STARLINK-3370,PAYLOAD,2023-01-06 14:41:07,15.08820011,0.0002459,53.2161,97.9417,20.4407,339.6683,-0.00052631,-8.651e-05,0.0,0 STARLINK-3370,1 51127U 22005Z   23006.61189482 -.00008651  00000-0 -52631-3 0  9997,2 51127  53.2161  97.9417 0002459  20.4407 339.6683 15.08820011 55026,6917.941,95.439,541.508,538.105,0.0
51127.0,STARLINK-3370,PAYLOAD,2023-01-07 06:34:59,15.08834743,0.0002763,53.2161,94.968,20.85,339.2604,-3.6795e-05,-8.74e-06,0.0,0 STARLINK-3370,1 51127U 22005Z   23007.27429420 -.00000874  00000-0 -36795-4 0  9992,2 51127  53.2161  94.9680 0002763  20.8500 339.2604 15.08834743 55128,6917.896,95.438,541.673,537.85,0.0
51127.0,STARLINK-3370,PAYLOAD,2023-01-07 14:31:55,15.08830732,0.0002779,53.216,93.4819,22.3892,337.7221,1.4257e-05,-6.2e-07,0.0,0 STARLINK-3370,1 51127U 22005Z   23007.60549923 -.00000062  00000-0  14257-4 0  9997,2 51127  53.2160  93.4819 0002779  22.3892 337.7221 15.08830732 54056,6917.9090000000015,95.438,541.696,537.851,0.0
51127.0,STARLINK-3370,PAYLOAD,2023-01-08 00:04:14,15.088199599999998,0.0002771,53.2157,91.6979,27.7349,332.379,-0.00013819,-2.486e-05,0.0,0 STARLINK-3370,1 51127U 22005Z   23008.00295137 -.00002486  00000-0 -13819-3 0  9992,2 51127  53.2157  91.6979 0002771  27.7349 332.3790 15.08819960 55230,6917.941999999999,95.439,541.724,537.89,0.0
51127.0,STARLINK-3370,PAYLOAD,2023-01-08 08:01:11,15.08814409,0.0002877,53.2149,90.2104,23.7275,336.3849,0.00012891,1.762e-05,0.0,0 STARLINK-3370,1 51127U 22005Z   23008.33416020  .00001762  00000-0  12891-3 0  9997,2 51127  53.2149  90.2104 0002877  23.7275 336.3849 15.08814409 54160,6917.959,95.439,541.814,537.8330000000002,0.0
51127.0,STARLINK-3370,PAYLOAD,2023-01-08 14:22:43,15.08839057,0.0003029,53.2161,89.0218,17.4596,342.65,0.00056184,8.665e-05,0.0,0 STARLINK-3370,1 51127U 22005Z   23008.59911110  .00008665  00000-0  56184-3 0  9997,2 51127  53.2161  89.0218 0003029  17.4596 342.6500 15.08839057 55321,6917.883000000002,95.438,541.844,537.653,0.0
51127.0,STARLINK-3370,PAYLOAD,2023-01-08 22:19:39,15.08838079,0.0002924,53.2158,87.531,22.6186,337.4935,0.00039713,6.037e-05,0.0,0 STARLINK-3370,1 51127U 22005Z   23008.93031395  .00006037  00000-0  39713-3 0  9993,2 51127  53.2158  87.5310 0002924  22.6186 337.4935 15.08838079 54257,6917.886,95.438,541.774,537.7280000000002,0.0
51127.0,STARLINK-3370,PAYLOAD,2023-01-09 03:05:48,15.08837738,0.0002752,53.2154,86.6409,18.7038,341.4054,8.799200000000001e-05,1.112e-05,0.0,0 STARLINK-3370,1 51127U 22005Z   23009.12903297  .00001112  00000-0  87992-4 0  9996,2 51127  53.2154  86.6409 0002752  18.7038 341.4054 15.08837738 55409,6917.887,95.438,541.656,537.849,0.0
